OBJECT_NAME,OBJECT_ID,EPOCH,MEAN_MOTION,ECCENTRICITY,INCLINATION,RA_OF_ASC_NODE,ARG_OF_PERICENTER,MEAN_ANOMALY,EPHEMERIS_TYPE,CLASSIFICATION_TYPE,NORAD_CAT_ID,ELEMENT_SET_NO,REV_AT_EPOCH,BSTAR,MEAN_MOTION_DOT,MEAN_MOTION_DDOT
LEMUR-2-LAILA,2025-276DQ,2026-06-10T04:23:05.232480,15.21194301,.00017643,97.4176,235.1743,144.8912,215.2440,0,U,66776,999,2938,.22883894E-3,.5034E-4,0
LEMUR-2-CELIJO-SB-PK,2025-276DW,2026-06-09T18:21:37.976832,14.99883605,.00088883,97.5277,231.7853,150.2717,209.9014,0,U,66781,999,2151,.46517757E-3,.5716E-4,0
LEMUR-2-FINNIAN,2025-276DX,2026-06-09T22:39:27.152064,15.00285972,.00086731,97.5265,232.1669,110.6610,249.5545,0,U,66782,999,1891,.51645436E-3,.642E-4,0
LEMUR-2-STARLIGHT,2025-276DY,2026-06-10T03:51:50.393088,14.98970826,.00153823,97.5278,232.0392,147.8197,212.3968,0,U,66783,999,2914,.43186132E-3,.5185E-4,0
LEMUR-2-TARTIFLETTE,2025-276DZ,2026-06-10T03:49:50.698848,14.98997768,.00139948,97.5281,232.0434,153.9085,206.2847,0,U,66784,999,2914,.50919553E-3,.6126E-4,0
LEMUR-2-VUKASIN,2025-276EA,2026-06-10T03:49:26.509440,15.00290015,.00063064,97.5312,232.3227,140.7004,219.4679,0,U,66785,999,2909,.44733288E-3,.5551E-4,0
LEMUR-2-HOTSPUR-TOM,2025-276EB,2026-06-09T22:49:57.700992,14.98871778,.00153985,97.5259,231.8257,149.5889,210.6230,0,U,66786,999,2904,.55095517E-3,.6615E-4,0
LEMUR-2-MYRA,2025-276EC,2026-06-10T02:57:48.197664,15.00147251,.0015754,97.5220,232.2370,164.9096,195.2601,0,U,66787,999,2915,.49414715E-3,.6128E-4,0
LEMUR-2 FIKRETDENGIZ,2026-004A,2026-06-10T06:38:22.033824,14.88275499,.00095586,97.8013,159.9411,152.8751,207.2967,0,U,67363,999,2225,.42975051E-3,.392E-4,0
TWILIGHT-1 OBJECT B,2026-004B,2026-06-09T23:05:13.992000,14.87678243,.00094915,97.8057,159.6496,145.1668,215.0171,0,U,67364,999,2221,.18326723E-3,.1615E-4,0
LEMUR-2-MARIO-SOUSA,2026-004C,2026-06-10T06:16:01.215552,14.88457919,.00091065,97.7989,159.9223,153.6280,206.5402,0,U,67365,999,2226,.43200981E-3,.3959E-4,0
LEMUR-2-SONNENBLUME,2026-004E,2026-06-09T23:45:10.734912,14.88279004,.00085844,97.7983,159.6423,156.1741,203.9874,0,U,67367,999,2222,.26175526E-3,.2366E-4,0
LEMUR-2-WOBLER,2026-004F,2026-06-10T06:04:22.413216,14.88469903,.00090348,97.8037,160.0167,145.2960,214.8848,0,U,67368,999,2226,.36270112E-3,.3315E-4,0
LEMUR-2-GRAM-E-SUE,2026-004H,2026-06-10T07:27:27.316512,14.88440652,.00077162,97.7967,159.9731,155.5650,204.5934,0,U,67370,999,2227,.19926936E-3,.1795E-4,0
LEMUR-2-KATIE,2026-004AA,2026-06-09T23:16:02.934624,14.90004825,.00047414,97.8035,160.0729,107.9480,252.2255,0,U,67387,999,2223,.37703772E-3,.3582E-4,0
LEMUR-2-HCS-BAZUS,2026-004AB,2026-06-10T05:41:35.125440,14.90005383,.00043214,97.8023,160.3191,102.9004,257.2696,0,U,67388,999,2227,.42514825E-3,.4046E-4,0
