LEMUR-2-LAILA           
1 66776U 25276DQ  26161.18269945  .00005034  00000+0  22884-3 0  9992
2 66776  97.4176 235.1743 0001764 144.8912 215.2440 15.21194301 29387
LEMUR-2-CELIJO-SB-PK    
1 66781U 25276DW  26160.76502288  .00005716  00000+0  46518-3 0  9998
2 66781  97.5277 231.7853 0008888 150.2717 209.9014 14.99883605 21518
LEMUR-2-FINNIAN         
1 66782U 25276DX  26160.94406426  .00006420  00000+0  51645-3 0  9996
2 66782  97.5265 232.1669 0008673 110.6610 249.5545 15.00285972 18915
LEMUR-2-STARLIGHT       
1 66783U 25276DY  26161.16099992  .00005185  00000+0  43186-3 0  9996
2 66783  97.5278 232.0392 0015382 147.8197 212.3968 14.98970826 29148
LEMUR-2-TARTIFLETTE     
1 66784U 25276DZ  26161.15961457  .00006126  00000+0  50920-3 0  9990
2 66784  97.5281 232.0434 0013994 153.9085 206.2847 14.98997768 29143
LEMUR-2-VUKASIN         
1 66785U 25276EA  26161.15933460  .00005551  00000+0  44733-3 0  9990
2 66785  97.5312 232.3227 0006306 140.7004 219.4679 15.00290015 29094
LEMUR-2-HOTSPUR-TOM     
1 66786U 25276EB  26160.95136228  .00006615  00000+0  55096-3 0  9991
2 66786  97.5259 231.8257 0015398 149.5889 210.6230 14.98871778 29049
LEMUR-2-MYRA            
1 66787U 25276EC  26161.12347451  .00006128  00000+0  49415-3 0  9991
2 66787  97.5220 232.2370 0015754 164.9096 195.2601 15.00147251 29154
LEMUR-2 FIKRETDENGIZ    
1 67363U 26004A   26161.27664391  .00003920  00000+0  42975-3 0  9994
2 67363  97.8013 159.9411 0009558 152.8751 207.2967 14.88275499 22252
TWILIGHT-1 OBJECT B     
1 67364U 26004B   26160.96196750  .00001615  00000+0  18327-3 0  9992
2 67364  97.8057 159.6496 0009491 145.1668 215.0171 14.87678243 22212
LEMUR-2-MARIO-SOUSA     
1 67365U 26004C   26161.26112518  .00003959  00000+0  43201-3 0  9999
2 67365  97.7989 159.9223 0009106 153.6280 206.5402 14.88457919 22267
LEMUR-2-SONNENBLUME     
1 67367U 26004E   26160.98970758  .00002366  00000+0  26176-3 0  9990
2 67367  97.7983 159.6423 0008584 156.1741 203.9874 14.88279004 22228
LEMUR-2-WOBLER          
1 67368U 26004F   26161.25303719  .00003315  00000+0  36270-3 0  9990
2 67368  97.8037 160.0167 0009034 145.2960 214.8848 14.88469903 22269
LEMUR-2-GRAM-E-SUE      
1 67370U 26004H   26161.31073283  .00001795  00000+0  19927-3 0  9990
2 67370  97.7967 159.9731 0007716 155.5650 204.5934 14.88440652 22275
LEMUR-2-KATIE           
1 67387U 26004AA  26160.96947841  .00003582  00000+0  37704-3 0  9997
2 67387  97.8035 160.0729 0004741 107.9480 252.2255 14.90004825 22230
LEMUR-2-HCS-BAZUS       
1 67388U 26004AB  26161.23721210  .00004046  00000+0  42515-3 0  9991
2 67388  97.8023 160.3191 0004321 102.9004 257.2696 14.90005383 22273
